{
  "type": "FeatureCollection",
  "features": [
    {
      "type": "Feature",
      "properties": {
        "norad_id": 36036,
        "name": "SMOS",
        "group": "resource",
        "lat": -36.996906242362016,
        "lon": -169.5499863283054,
        "alt_km": 766.0269690939867,
        "timestamp": "2025-12-25T03:55:55.963016+00:00",
        "meta_object_name": "SMOS",
        "meta_object_id": "2009-059A",
        "meta_epoch": "2025-12-24T18:05:54.245184",
        "meta_mean_motion": 14.39751659,
        "meta_eccentricity": 0.000105,
        "meta_inclination": 98.4381,
        "meta_ra_of_asc_node": 183.6247,
        "meta_arg_of_pericenter": 83.5251,
        "meta_mean_anomaly": 276.6056,
        "meta_ephemeris_type": 0,
        "meta_classification_type": "U",
        "meta_norad_cat_id": 36036,
        "meta_element_set_no": 999,
        "meta_rev_at_epoch": 84835,
        "meta_bstar": 0.0001365,
        "meta_mean_motion_dot": 3.84e-06,
        "meta_mean_motion_ddot": 0,
        "tle_line1": "1 36036U 09059A   25358.75410006  .00000384  00000+0  13650-3 0  9999",
        "tle_line2": "2 36036  98.4381 183.6247 0001050  83.5251 276.6056 14.39751659848354"
      },
      "geometry": {
        "type": "Point",
        "coordinates": [
          -169.5499863283054,
          -36.996906242362016
        ]
      }
    },
    {
      "type": "Feature",
      "properties": {
        "norad_id": 36110,
        "name": "YAOGAN-7",
        "group": "resource",
        "lat": 43.63668170041602,
        "lon": -126.85925298767565,
        "alt_km": 648.701052147374,
        "timestamp": "2025-12-25T03:55:55.963027+00:00",
        "meta_object_name": "YAOGAN-7",
        "meta_object_id": "2009-069A",
        "meta_epoch": "2025-12-24T16:21:24.062400",
        "meta_mean_motion": 14.77749162,
        "meta_eccentricity": 0.0023448,
        "meta_inclination": 98.0293,
        "meta_ra_of_asc_node": 240.3955,
        "meta_arg_of_pericenter": 240.5745,
        "meta_mean_anomaly": 119.3125,
        "meta_ephemeris_type": 0,
        "meta_classification_type": "U",
        "meta_norad_cat_id": 36110,
        "meta_element_set_no": 999,
        "meta_rev_at_epoch": 86385,
        "meta_bstar": 9.5714e-05,
        "meta_mean_motion_dot": 6.36e-06,
        "meta_mean_motion_ddot": 0,
        "tle_line1": "1 36110U 09069A   25358.68152850  .00000636  00000+0  95714-4 0  9997",
        "tle_line2": "2 36110  98.0293 240.3955 0023448 240.5745 119.3125 14.77749162863850"
      },
      "geometry": {
        "type": "Point",
        "coordinates": [
          -126.85925298767565,
          43.63668170041602
        ]
      }
    },
    {
      "type": "Feature",
      "properties": {
        "norad_id": 36605,
        "name": "TANDEM-X",
        "group": "resource",
        "lat": -21.21038697277674,
        "lon": 7.271553202641733,
        "alt_km": 514.2708080244402,
        "timestamp": "2025-12-25T03:55:55.963037+00:00",
        "meta_object_name": "TANDEM-X",
        "meta_object_id": "2010-030A",
        "meta_epoch": "2025-12-24T13:47:55.228128",
        "meta_mean_motion": 15.19151393,
        "meta_eccentricity": 0.0001774,
        "meta_inclination": 97.4454,
        "meta_ra_of_asc_node": 3.7821,
        "meta_arg_of_pericenter": 94.5594,
        "meta_mean_anomaly": 265.5843,
        "meta_ephemeris_type": 0,
        "meta_classification_type": "U",
        "meta_norad_cat_id": 36605,
        "meta_element_set_no": 999,
        "meta_rev_at_epoch": 86013,
        "meta_bstar": 4.5827e-05,
        "meta_mean_motion_dot": 8.95e-06,
        "meta_mean_motion_ddot": 0,
        "tle_line1": "1 36605U 10030A   25358.57494477  .00000895  00000+0  45827-4 0  9995",
        "tle_line2": "2 36605  97.4454   3.7821 0001774  94.5594 265.5843 15.19151393860130"
      },
      "geometry": {
        "type": "Point",
        "coordinates": [
          7.271553202641733,
          -21.21038697277674
        ]
      }
    },
    {
      "type": "Feature",
      "properties": {
        "norad_id": 36795,
        "name": "CARTOSAT-2B",
        "group": "resource",
        "lat": 15.33814932845969,
        "lon": 45.63891335593516,
        "alt_km": 626.0717650678025,
        "timestamp": "2025-12-25T03:55:55.963048+00:00",
        "meta_object_name": "CARTOSAT-2B",
        "meta_object_id": "2010-035A",
        "meta_epoch": "2025-12-24T21:21:59.682240",
        "meta_mean_motion": 14.78740797,
        "meta_eccentricity": 0.001258,
        "meta_inclination": 97.7832,
        "meta_ra_of_asc_node": 47.5243,
        "meta_arg_of_pericenter": 40.6055,
        "meta_mean_anomaly": 319.6093,
        "meta_ephemeris_type": 0,
        "meta_classification_type": "U",
        "meta_norad_cat_id": 36795,
        "meta_element_set_no": 999,
        "meta_rev_at_epoch": 83409,
        "meta_bstar": 7.5609e-05,
        "meta_mean_motion_dot": 5.06e-06,
        "meta_mean_motion_ddot": 0,
        "tle_line1": "1 36795U 10035A   25358.89027410  .00000506  00000+0  75609-4 0  9994",
        "tle_line2": "2 36795  97.7832  47.5243 0012580  40.6055 319.6093 14.78740797834098"
      },
      "geometry": {
        "type": "Point",
        "coordinates": [
          45.63891335593516,
          15.33814932845969
        ]
      }
    },
    {
      "type": "Feature",
      "properties": {
        "norad_id": 36834,
        "name": "YAOGAN-10",
        "group": "resource",
        "lat": -0.7833280358605532,
        "lon": 18.9999827728972,
        "alt_km": 617.6410414043894,
        "timestamp": "2025-12-25T03:55:55.963059+00:00",
        "meta_object_name": "YAOGAN-10",
        "meta_object_id": "2010-038A",
        "meta_epoch": "2025-12-24T21:59:59.080128",
        "meta_mean_motion": 14.84653678,
        "meta_eccentricity": 0.0001446,
        "meta_inclination": 97.9131,
        "meta_ra_of_asc_node": 18.6457,
        "meta_arg_of_pericenter": 81.2245,
        "meta_mean_anomaly": 37.7807,
        "meta_ephemeris_type": 0,
        "meta_classification_type": "U",
        "meta_norad_cat_id": 36834,
        "meta_element_set_no": 999,
        "meta_rev_at_epoch": 83134,
        "meta_bstar": 0.00031814,
        "meta_mean_motion_dot": 2.637e-05,
        "meta_mean_motion_ddot": 0,
        "tle_line1": "1 36834U 10038A   25358.91665602  .00002637  00000+0  31814-3 0  9991",
        "tle_line2": "2 36834  97.9131  18.6457 0001446  81.2245  37.7807 14.84653678831347"
      },
      "geometry": {
        "type": "Point",
        "coordinates": [
          18.9999827728972,
          -0.7833280358605532
        ]
      }
    },
    {
      "type": "Feature",
      "properties": {
        "norad_id": 37216,
        "name": "COSMO-SKYMED 4",
        "group": "resource",
        "lat": 7.930408684675378,
        "lon": 1.40539600177021,
        "alt_km": 624.4658780497866,
        "timestamp": "2025-12-25T03:55:55.963069+00:00",
        "meta_object_name": "COSMO-SKYMED 4",
        "meta_object_id": "2010-060A",
        "meta_epoch": "2025-12-24T20:40:42.056832",
        "meta_mean_motion": 14.82159236,
        "meta_eccentricity": 0.0001357,
        "meta_inclination": 97.8803,
        "meta_ra_of_asc_node": 180.0023,
        "meta_arg_of_pericenter": 81.7751,
        "meta_mean_anomaly": 278.3616,
        "meta_ephemeris_type": 0,
        "meta_classification_type": "U",
        "meta_norad_cat_id": 37216,
        "meta_element_set_no": 999,
        "meta_rev_at_epoch": 81874,
        "meta_bstar": 0.00011591,
        "meta_mean_motion_dot": 8.71e-06,
        "meta_mean_motion_ddot": 0,
        "tle_line1": "1 37216U 10060A   25358.86159788  .00000871  00000+0  11591-3 0  9996",
        "tle_line2": "2 37216  97.8803 180.0023 0001357  81.7751 278.3616 14.82159236818747"
      },
      "geometry": {
        "type": "Point",
        "coordinates": [
          1.40539600177021,
          7.930408684675378
        ]
      }
    },
    {
      "type": "Feature",
      "properties": {
        "norad_id": 37387,
        "name": "RESOURCESAT-2",
        "group": "resource",
        "lat": -46.33049415955086,
        "lon": 71.98263835035509,
        "alt_km": 824.2933266178798,
        "timestamp": "2025-12-25T03:55:55.963080+00:00",
        "meta_object_name": "RESOURCESAT-2",
        "meta_object_id": "2011-015A",
        "meta_epoch": "2025-12-24T19:42:25.118784",
        "meta_mean_motion": 14.21601829,
        "meta_eccentricity": 0.000583,
        "meta_inclination": 98.786,
        "meta_ra_of_asc_node": 62.3179,
        "meta_arg_of_pericenter": 9.5682,
        "meta_mean_anomaly": 350.5605,
        "meta_ephemeris_type": 0,
        "meta_classification_type": "U",
        "meta_norad_cat_id": 37387,
        "meta_element_set_no": 999,
        "meta_rev_at_epoch": 76140,
        "meta_bstar": 8.0077e-05,
        "meta_mean_motion_dot": 1.31e-06,
        "meta_mean_motion_ddot": 0,
        "tle_line1": "1 37387U 11015A   25358.82112406  .00000131  00000+0  80077-4 0  9993",
        "tle_line2": "2 37387  98.7860  62.3179 0005830   9.5682 350.5605 14.21601829761408"
      },
      "geometry": {
        "type": "Point",
        "coordinates": [
          71.98263835035509,
          -46.33049415955086
        ]
      }
    }
  ]
}